SKYSAT-A                
1 39418U 13066C   26185.71696353  .00003987  00000+0  22798-3 0  9990
2 39418  97.3799 234.5557 0019755 251.9320 107.9760 15.13074898691137
SKYSAT-B                
1 40072U 14037D   26185.87723848  .00001730  00000+0  19485-3 0  9997
2 40072  98.3847 145.8518 0004728 208.3182 151.7776 14.88075391648593
SKYSAT-C1               
1 41601U 16040C   26186.06138831  .00015073  00000+0  42330-3 0  9996
2 41601  96.9551 216.8145 0001497  20.1771 339.9533 15.36622026560611
SKYSAT-C4               
1 41771U 16058B   26185.32375483  .00022372  00000+0  41239-3 0  9994
2 41771  96.9163 206.3834 0002854 134.2708 225.8779 15.49141148548124
SKYSAT-C5               
1 41772U 16058C   26185.84011224  .00013017  00000+0  38859-3 0  9992
2 41772  97.0456 225.6942 0002198 183.2144 176.9087 15.34736407546459
SKYSAT-C2               
1 41773U 16058D   26185.77760887  .00022506  00000+0  52036-3 0  9997
2 41773  97.0161 207.2138 0002783  28.9568 331.1835 15.42495246547764
SKYSAT-C3               
1 41774U 16058E   26186.05714343  .00037140  00000+0  58772-3 0  9999
2 41774  96.8996 216.2241 0001713 133.4537 226.6861 15.53353116548885
SKYSAT-C11              
1 42987U 17068A   26185.65180667  .00046313  00000+0  59785-3 0  9996
2 42987  97.4374 335.2554 0000550 164.1646 195.9627 15.58849535485965
SKYSAT-C10              
1 42988U 17068B   26185.63504780  .00019095  00000+0  56482-3 0  9999
2 42988  97.4530 322.6571 0001266 108.4549 251.6831 15.34954592485036
SKYSAT-C9               
1 42989U 17068C   26186.15204287  .00020658  00000+0  48482-3 0  9995
2 42989  97.4452 324.2875 0009276  76.6476 283.5805 15.42030350485524
SKYSAT-C8               
1 42990U 17068D   26185.84000391  .00017285  00000+0  47416-3 0  9990
2 42990  97.4548 322.7320 0001197  96.1071 264.0309 15.37337781485022
SKYSAT-C7               
1 42991U 17068E   26185.37852402  .00015861  00000+0  43598-3 0  9992
2 42991  97.4560 323.2545 0006585  55.9275 304.2594 15.37274879485017
SKYSAT-C6               
1 42992U 17068F   26185.82229056  .00015608  00000+0  47208-3 0  9997
2 42992  97.4596 323.6042 0005208 103.9495 256.2328 15.34283314485025
SKYSAT-C12              
1 43797U 18099AR  26185.79309869  .00034202  00000+0  62039-3 0  9993
2 43797  96.9249 208.3274 0006014  94.2180 265.9760 15.49507169424587
