{"fetched_at":"2026-07-05T17:36:11.010Z","source":"https://celestrak.org/NORAD/elements/gp.php?GROUP=planet&FORMAT=JSON","constellation":"skysat","records":[{"OBJECT_NAME":"SKYSAT-A","OBJECT_ID":"2013-066C","EPOCH":"2026-07-04T17:12:25.648992","CLASSIFICATION_TYPE":"U","MEAN_MOTION":15.13074898,"ECCENTRICITY":0.0019755,"INCLINATION":97.3799,"RA_OF_ASC_NODE":234.5557,"ARG_OF_PERICENTER":251.932,"MEAN_ANOMALY":107.976,"EPHEMERIS_TYPE":0,"NORAD_CAT_ID":39418,"ELEMENT_SET_NO":999,"REV_AT_EPOCH":69113,"BSTAR":0.00022797664,"MEAN_MOTION_DOT":0.00003987,"MEAN_MOTION_DDOT":0},{"OBJECT_NAME":"SKYSAT-B","OBJECT_ID":"2014-037D","EPOCH":"2026-07-04T21:03:13.404672","CLASSIFICATION_TYPE":"U","MEAN_MOTION":14.88075391,"ECCENTRICITY":0.00047281,"INCLINATION":98.3847,"RA_OF_ASC_NODE":145.8518,"ARG_OF_PERICENTER":208.3182,"MEAN_ANOMALY":151.7776,"EPHEMERIS_TYPE":0,"NORAD_CAT_ID":40072,"ELEMENT_SET_NO":999,"REV_AT_EPOCH":64859,"BSTAR":0.00019484651,"MEAN_MOTION_DOT":0.0000173,"MEAN_MOTION_DDOT":0},{"OBJECT_NAME":"SKYSAT-C1","OBJECT_ID":"2016-040C","EPOCH":"2026-07-05T01:28:23.949984","CLASSIFICATION_TYPE":"U","MEAN_MOTION":15.36622026,"ECCENTRICITY":0.00014971,"INCLINATION":96.9551,"RA_OF_ASC_NODE":216.8145,"ARG_OF_PERICENTER":20.1771,"MEAN_ANOMALY":339.9533,"EPHEMERIS_TYPE":0,"NORAD_CAT_ID":41601,"ELEMENT_SET_NO":999,"REV_AT_EPOCH":56061,"BSTAR":0.00042329528,"MEAN_MOTION_DOT":0.00015073,"MEAN_MOTION_DDOT":0},{"OBJECT_NAME":"SKYSAT-C4","OBJECT_ID":"2016-058B","EPOCH":"2026-07-04T07:46:12.417312","CLASSIFICATION_TYPE":"U","MEAN_MOTION":15.49141148,"ECCENTRICITY":0.00028545,"INCLINATION":96.9163,"RA_OF_ASC_NODE":206.3834,"ARG_OF_PERICENTER":134.2708,"MEAN_ANOMALY":225.8779,"EPHEMERIS_TYPE":0,"NORAD_CAT_ID":41771,"ELEMENT_SET_NO":999,"REV_AT_EPOCH":54812,"BSTAR":0.00041239451,"MEAN_MOTION_DOT":0.00022372,"MEAN_MOTION_DDOT":0},{"OBJECT_NAME":"SKYSAT-C5","OBJECT_ID":"2016-058C","EPOCH":"2026-07-04T20:09:45.697536","CLASSIFICATION_TYPE":"U","MEAN_MOTION":15.34736407,"ECCENTRICITY":0.0002198,"INCLINATION":97.0456,"RA_OF_ASC_NODE":225.6942,"ARG_OF_PERICENTER":183.2144,"MEAN_ANOMALY":176.9087,"EPHEMERIS_TYPE":0,"NORAD_CAT_ID":41772,"ELEMENT_SET_NO":999,"REV_AT_EPOCH":54645,"BSTAR":0.00038858981,"MEAN_MOTION_DOT":0.00013017,"MEAN_MOTION_DDOT":0},{"OBJECT_NAME":"SKYSAT-C2","OBJECT_ID":"2016-058D","EPOCH":"2026-07-04T18:39:45.406368","CLASSIFICATION_TYPE":"U","MEAN_MOTION":15.42495246,"ECCENTRICITY":0.00027832,"INCLINATION":97.0161,"RA_OF_ASC_NODE":207.2138,"ARG_OF_PERICENTER":28.9568,"MEAN_ANOMALY":331.1835,"EPHEMERIS_TYPE":0,"NORAD_CAT_ID":41773,"ELEMENT_SET_NO":999,"REV_AT_EPOCH":54776,"BSTAR":0.00052036018,"MEAN_MOTION_DOT":0.00022506,"MEAN_MOTION_DDOT":0},{"OBJECT_NAME":"SKYSAT-C3","OBJECT_ID":"2016-058E","EPOCH":"2026-07-05T01:22:17.192352","CLASSIFICATION_TYPE":"U","MEAN_MOTION":15.53353116,"ECCENTRICITY":0.0001713,"INCLINATION":96.8996,"RA_OF_ASC_NODE":216.2241,"ARG_OF_PERICENTER":133.4537,"MEAN_ANOMALY":226.6861,"EPHEMERIS_TYPE":0,"NORAD_CAT_ID":41774,"ELEMENT_SET_NO":999,"REV_AT_EPOCH":54888,"BSTAR":0.00058771875,"MEAN_MOTION_DOT":0.0003714,"MEAN_MOTION_DDOT":0},{"OBJECT_NAME":"SKYSAT-C11","OBJECT_ID":"2017-068A","EPOCH":"2026-07-04T15:38:36.096288","CLASSIFICATION_TYPE":"U","MEAN_MOTION":15.58849535,"ECCENTRICITY":0.000055,"INCLINATION":97.4374,"RA_OF_ASC_NODE":335.2554,"ARG_OF_PERICENTER":164.1646,"MEAN_ANOMALY":195.9627,"EPHEMERIS_TYPE":0,"NORAD_CAT_ID":42987,"ELEMENT_SET_NO":999,"REV_AT_EPOCH":48596,"BSTAR":0.00059784918,"MEAN_MOTION_DOT":0.00046313,"MEAN_MOTION_DDOT":0},{"OBJECT_NAME":"SKYSAT-C10","OBJECT_ID":"2017-068B","EPOCH":"2026-07-04T15:14:28.129920","CLASSIFICATION_TYPE":"U","MEAN_MOTION":15.34954592,"ECCENTRICITY":0.0001266,"INCLINATION":97.453,"RA_OF_ASC_NODE":322.6571,"ARG_OF_PERICENTER":108.4549,"MEAN_ANOMALY":251.6831,"EPHEMERIS_TYPE":0,"NORAD_CAT_ID":42988,"ELEMENT_SET_NO":999,"REV_AT_EPOCH":48503,"BSTAR":0.00056482026,"MEAN_MOTION_DOT":0.00019095,"MEAN_MOTION_DDOT":0},{"OBJECT_NAME":"SKYSAT-C9","OBJECT_ID":"2017-068C","EPOCH":"2026-07-05T03:38:56.503968","CLASSIFICATION_TYPE":"U","MEAN_MOTION":15.4203035,"ECCENTRICITY":0.00092763,"INCLINATION":97.4452,"RA_OF_ASC_NODE":324.2875,"ARG_OF_PERICENTER":76.6476,"MEAN_ANOMALY":283.5805,"EPHEMERIS_TYPE":0,"NORAD_CAT_ID":42989,"ELEMENT_SET_NO":999,"REV_AT_EPOCH":48552,"BSTAR":0.00048482021,"MEAN_MOTION_DOT":0.00020658,"MEAN_MOTION_DDOT":0},{"OBJECT_NAME":"SKYSAT-C8","OBJECT_ID":"2017-068D","EPOCH":"2026-07-04T20:09:36.337824","CLASSIFICATION_TYPE":"U","MEAN_MOTION":15.37337781,"ECCENTRICITY":0.00011974,"INCLINATION":97.4548,"RA_OF_ASC_NODE":322.732,"ARG_OF_PERICENTER":96.1071,"MEAN_ANOMALY":264.0309,"EPHEMERIS_TYPE":0,"NORAD_CAT_ID":42990,"ELEMENT_SET_NO":999,"REV_AT_EPOCH":48502,"BSTAR":0.00047415956,"MEAN_MOTION_DOT":0.00017285,"MEAN_MOTION_DDOT":0},{"OBJECT_NAME":"SKYSAT-C7","OBJECT_ID":"2017-068E","EPOCH":"2026-07-04T09:05:04.475328","CLASSIFICATION_TYPE":"U","MEAN_MOTION":15.37274879,"ECCENTRICITY":0.00065856,"INCLINATION":97.456,"RA_OF_ASC_NODE":323.2545,"ARG_OF_PERICENTER":55.9275,"MEAN_ANOMALY":304.2594,"EPHEMERIS_TYPE":0,"NORAD_CAT_ID":42991,"ELEMENT_SET_NO":999,"REV_AT_EPOCH":48501,"BSTAR":0.00043597651,"MEAN_MOTION_DOT":0.00015861,"MEAN_MOTION_DDOT":0},{"OBJECT_NAME":"SKYSAT-C6","OBJECT_ID":"2017-068F","EPOCH":"2026-07-04T19:44:05.904384","CLASSIFICATION_TYPE":"U","MEAN_MOTION":15.34283314,"ECCENTRICITY":0.00052085,"INCLINATION":97.4596,"RA_OF_ASC_NODE":323.6042,"ARG_OF_PERICENTER":103.9495,"MEAN_ANOMALY":256.2328,"EPHEMERIS_TYPE":0,"NORAD_CAT_ID":42992,"ELEMENT_SET_NO":999,"REV_AT_EPOCH":48502,"BSTAR":0.00047207554,"MEAN_MOTION_DOT":0.00015608,"MEAN_MOTION_DDOT":0},{"OBJECT_NAME":"SKYSAT-C12","OBJECT_ID":"2018-099AR","EPOCH":"2026-07-04T19:02:03.726816","CLASSIFICATION_TYPE":"U","MEAN_MOTION":15.49507169,"ECCENTRICITY":0.00060148,"INCLINATION":96.9249,"RA_OF_ASC_NODE":208.3274,"ARG_OF_PERICENTER":94.218,"MEAN_ANOMALY":265.976,"EPHEMERIS_TYPE":0,"NORAD_CAT_ID":43797,"ELEMENT_SET_NO":999,"REV_AT_EPOCH":42458,"BSTAR":0.00062038929,"MEAN_MOTION_DOT":0.00034202,"MEAN_MOTION_DDOT":0}]}
